NORAD_CAT_ID,OBJECT_NAME,OBJECT_TYPE,EPOCH,MEAN_MOTION,ECCENTRICITY,INCLINATION,RA_OF_ASC_NODE,ARG_OF_PERICENTER,MEAN_ANOMALY,BSTAR,MEAN_MOTION_DOT,MEAN_MOTION_DDOT,TLE_LINE0,TLE_LINE1,TLE_LINE2,SEMIMAJOR_AXIS,PERIOD,APOGEE,PERIGEE,DECAYED
54080.0,STARLINK-5160,PAYLOAD,2023-11-04 11:35:02,15.08838766,0.0001672,53.216,222.9475,91.6034,268.515,0.00033966,5.122e-05,0.0,0 STARLINK-5160,1 54080U 22136AF  23308.48266753  .00005122  00000-0  33966-3 0  9998,2 54080  53.2160 222.9475 0001672  91.6034 268.5150 15.08838766 57658,6917.884,95.438,540.906,538.592,0.0
54080.0,STARLINK-5160,PAYLOAD,2023-11-04 22:42:44,15.08862786,0.0001568,53.2156,220.8653,90.1116,270.0056,0.0013794,0.00021747,0.0,0 STARLINK-5160,1 54080U 22136AF  23308.94634439  .00021747  00000-0  13794-2 0  9996,2 54080  53.2156 220.8653 0001568  90.1116 270.0056 15.08862786 57727,6917.811,95.436,540.76,538.591,0.0
54080.0,STARLINK-5160,PAYLOAD,2023-11-05 03:28:53,15.08888946,0.0001541,53.2157,219.9734,90.4092,269.7076,0.0024504,0.00038979,0.0,0 STARLINK-5160,1 54080U 22136AF  23309.14505857  .00038979  00000-0  24504-2 0  9996,2 54080  53.2157 219.9734 0001541  90.4092 269.7076 15.08888946 58234,6917.731,95.434,540.662,538.53,0.0
54080.0,STARLINK-5160,PAYLOAD,2023-11-05 11:25:48,15.08863449,0.0001823,53.2171,218.486,84.4223,275.6977,0.00075354,0.00011733,0.0,0 STARLINK-5160,1 54080U 22136AF  23309.47625948  .00011733  00000-0  75354-3 0  9995,2 54080  53.2171 218.4860 0001823  84.4223 275.6977 15.08863449 58288,6917.809,95.436,540.935,538.413,0.0
54080.0,STARLINK-5160,PAYLOAD,2023-11-05 22:33:29,15.08903035,0.0001638,53.2155,216.4047,84.4736,275.6443,0.0021347,0.00033908,0.0,0 STARLINK-5160,1 54080U 22136AF  23309.93992660  .00033908  00000-0  21347-2 0  9994,2 54080  53.2155 216.4047 0001638  84.4736 275.6443 15.08903035 57876,6917.688,95.434,540.686,538.42,0.0
54080.0,STARLINK-5160,PAYLOAD,2023-11-06 03:19:38,15.08925905,0.000142,53.2148,215.5125,87.312,272.8035,0.0040564,0.00065019,0.0,0 STARLINK-5160,1 54080U 22136AF  23310.13863769  .00065019  00000-0  40564-2 0  9995,2 54080  53.2148 215.5125 0001420  87.3120 272.8035 15.08925905 58386,6917.618,95.432,540.465,538.501,0.0
54080.0,STARLINK-5160,PAYLOAD,2023-11-06 11:16:33,15.088933,0.0002033,53.2161,214.0253,97.2585,262.8638,0.00098904,0.00015511,0.0,0 STARLINK-5160,1 54080U 22136AF  23310.46983653  .00015511  00000-0  98904-3 0  9990,2 54080  53.2161 214.0253 0002033  97.2585 262.8638 15.08893300 58430,6917.717,95.434,540.989,538.176,0.0
54080.0,STARLINK-5160,PAYLOAD,2023-11-06 22:24:16,15.08809209,0.0001421,53.2161,211.9452,125.2655,234.847,-0.00023014,-3.946e-05,0.0,0 STARLINK-5160,1 54080U 22136AF  23310.93352693 -.00003946  00000-0 -23014-3 0  9997,2 54080  53.2161 211.9452 0001421 125.2655 234.8470 15.08809209 58020,6917.975,95.44,540.823,538.856,0.0
54080.0,STARLINK-5160,PAYLOAD,2023-11-06 23:59:40,15.087767,0.0001327,53.2158,211.6473,96.1066,264.0078,-0.0022897,-0.00036481,0.0,0 STARLINK-5160,1 54080U 22136AF  23310.99977313 -.00036481  00000-0 -22897-2 0  9992,2 54080  53.2158 211.6473 0001327  96.1066 264.0078 15.08776700 58515,6918.074,95.442,540.857,539.021,0.0
54080.0,STARLINK-5160,PAYLOAD,2023-11-07 11:07:24,15.08777988,0.0001632,53.2168,209.5662,104.5866,255.5307,0.0025208,0.0003999,0.0,0 STARLINK-5160,1 54080U 22136AF  23311.46348045  .00039990  00000-0  25208-2 0  9994,2 54080  53.2168 209.5662 0001632 104.5866 255.5307 15.08777988 58589,6918.07,95.441,541.064,538.806,0.0
54080.0,STARLINK-5160,PAYLOAD,2023-11-07 23:50:30,15.08823962,0.0001434,53.2159,207.1894,102.1574,257.9578,0.0024997,0.00039702,0.0,0 STARLINK-5160,1 54080U 22136AF  23311.99341322  .00039702  00000-0  24997-2 0  9998,2 54080  53.2159 207.1894 0001434 102.1574 257.9578 15.08823962 58186,6917.929,95.439,540.786,538.802,0.0
54080.0,STARLINK-5160,PAYLOAD,2023-11-08 22:05:53,15.08885009,0.0001404,53.2161,203.0258,105.1884,254.9263,0.002147,0.00034089,0.0,0 STARLINK-5160,1 54080U 22136AF  23312.92076381  .00034089  00000-0  21470-2 0  9998,2 54080  53.2161 203.0258 0001404 105.1884 254.9263 15.08885009 58326,6917.743,95.435,540.579,538.637,0.0
54080.0,STARLINK-5160,PAYLOAD,2023-11-08 23:41:16,15.08888748,0.0001355,53.2161,202.7275,104.5529,255.5614,0.0021133,0.00033551,0.0,0 STARLINK-5160,1 54080U 22136AF  23312.98700167  .00033551  00000-0  21133-2 0  9999,2 54080  53.2161 202.7275 0001355 104.5529 255.5614 15.08888748 58819,6917.731,95.434,540.534,538.659,0.0
54080.0,STARLINK-5160,PAYLOAD,2023-11-09 21:56:40,15.08870717,0.0001618,53.2167,198.5681,123.3726,236.7422,0.0012199,0.00019196,0.0,0 STARLINK-5160,1 54080U 22136AF  23313.91435187  .00019196  00000-0  12199-2 0  9991,2 54080  53.2167 198.5681 0001618 123.3726 236.7422 15.08870717 58475,6917.787,95.436,540.771,538.532,0.0
54080.0,STARLINK-5160,PAYLOAD,2023-11-10 04:18:12,15.088655,0.0001348,53.2162,197.375,95.7112,264.4034,0.00034888,5.273e-05,0.0,0 STARLINK-5160,1 54080U 22136AF  23314.17930896  .00005273  00000-0  34888-3 0  9998,2 54080  53.2162 197.3750 0001348  95.7112 264.4034 15.08865500 58993,6917.802,95.436,540.6,538.735,0.0
54080.0,STARLINK-5160,PAYLOAD,2023-11-10 09:04:22,15.08833345,0.0001515,53.2167,196.484,98.7905,261.3259,-0.00037881,-6.311e-05,0.0,0 STARLINK-5160,1 54080U 22136AF  23314.37803380 -.00006311  00000-0 -37881-3 0  9999,2 54080  53.2167 196.4840 0001515  98.7905 261.3259 15.08833345 59029,6917.901,95.438,540.814,538.718,0.0
54080.0,STARLINK-5160,PAYLOAD,2023-11-10 21:47:27,15.08833252,0.0001505,53.2154,194.1024,81.7154,278.4009,0.00068893,0.00010691,0.0,0 STARLINK-5160,1 54080U 22136AF  23314.90795669  .00010691  00000-0  68893-3 0  9999,2 54080  53.2154 194.1024 0001505  81.7154 278.4009 15.08833252 58625,6917.901,95.438,540.807,538.725,0.0
54080.0,STARLINK-5160,PAYLOAD,2023-11-11 02:33:36,15.08842483,0.000153,53.2155,193.2113,93.1931,266.9236,0.0010459,0.00016398,0.0,0 STARLINK-5160,1 54080U 22136AF  23315.10667611  .00016398  00000-0  10459-2 0  9991,2 54080  53.2155 193.2113 0001530  93.1931 266.9236 15.08842483 59130,6917.873,95.437,540.796,538.679,0.0
54080.0,STARLINK-5160,PAYLOAD,2023-11-11 08:55:09,15.08844845,0.0001405,53.2149,192.0213,89.4836,270.6317,0.00054092,8.332e-05,0.0,0 STARLINK-5160,1 54080U 22136AF  23315.37163485  .00008332  00000-0  54092-3 0  9991,2 54080  53.2149 192.0213 0001405  89.4836 270.6317 15.08844845 58690,6917.866,95.437,540.703,538.759,0.0
54080.0,STARLINK-5160,PAYLOAD,2023-11-11 20:02:51,15.08841807,0.0001617,53.2154,189.9408,92.6755,267.4422,0.00022392,3.278e-05,0.0,0 STARLINK-5160,1 54080U 22136AF  23315.83531597  .00003278  00000-0  22392-3 0  9997,2 54080  53.2154 189.9408 0001617  92.6755 267.4422 15.08841807 59246,6917.875,95.437,540.858,538.621,0.0
54080.0,STARLINK-5160,PAYLOAD,2023-11-11 21:38:14,15.08841249,0.000156,53.2151,189.6433,91.8778,268.2393,0.00022012,3.217e-05,0.0,0 STARLINK-5160,1 54080U 22136AF  23315.90155578  .00003217  00000-0  22012-3 0  9998,2 54080  53.2151 189.6433 0001560  91.8778 268.2393 15.08841249 58774,6917.877,95.437,540.821,538.662,0.0
54080.0,STARLINK-5160,PAYLOAD,2023-11-12 08:45:56,15.08845996,0.0001594,53.2155,187.5618,88.0052,272.1122,0.0001496,2.094e-05,0.0,0 STARLINK-5160,1 54080U 22136AF  23316.36523369  .00002094  00000-0  14960-3 0  9991,2 54080  53.2155 187.5618 0001594  88.0052 272.1122 15.08845996 58845,6917.862,95.437,540.83,538.624,0.0
54080.0,STARLINK-5160,PAYLOAD,2023-11-12 21:29:01,15.08845268,0.0001764,53.2161,185.1825,87.4303,272.6891,9.7849e-05,1.27e-05,0.0,0 STARLINK-5160,1 54080U 22136AF  23316.89515388  .00001270  00000-0  97849-4 0  9994,2 54080  53.2161 185.1825 0001764  87.4303 272.6891 15.08845268 58926,6917.864,95.437,540.95,538.509,0.0
54080.0,STARLINK-5160,PAYLOAD,2023-11-13 00:39:47,15.08847796,0.0001793,53.2162,184.5877,92.411,267.7087,0.00022033,3.221e-05,0.0,0 STARLINK-5160,1 54080U 22136AF  23317.02763316  .00003221  00000-0  22033-3 0  9996,2 54080  53.2162 184.5877 0001793  92.4110 267.7087 15.08847796 59427,6917.857,95.437,540.962,538.481,0.0
54080.0,STARLINK-5160,PAYLOAD,2023-11-13 08:36:43,15.08847148,0.0001763,53.2159,183.1005,89.5769,270.5425,8.8585e-05,1.122e-05,0.0,0 STARLINK-5160,1 54080U 22136AF  23317.35883269  .00001122  00000-0  88585-4 0  9995,2 54080  53.2159 183.1005 0001763  89.5769 270.5425 15.08847148 58995,6917.859,95.437,540.943,538.504,0.0
54080.0,STARLINK-5160,PAYLOAD,2023-11-14 08:27:30,15.08842088,0.0001684,53.2158,178.638,92.555,267.5634,6.4e-05,7.31e-06,0.0,0 STARLINK-5160,1 54080U 22136AF  23318.35243449  .00000731  00000-0  64000-4 0  9997,2 54080  53.2158 178.6380 0001684  92.5550 267.5634 15.08842088 59620,6917.874,95.437,540.904,538.574,0.0
54080.0,STARLINK-5160,PAYLOAD,2023-11-14 14:49:03,15.08841668,0.0001872,53.2157,177.4501,90.9663,269.1544,9.8381e-05,1.278e-05,0.0,0 STARLINK-5160,1 54080U 22136AF  23318.61739605  .00001278  00000-0  98381-4 0  9996,2 54080  53.2157 177.4501 0001872  90.9663 269.1544 15.08841668 59189,6917.875,95.437,541.035,538.445,0.0
54080.0,STARLINK-5160,PAYLOAD,2023-11-14 21:10:35,15.0884249,0.0001885,53.2156,176.2603,92.1088,268.012,0.00010588,1.397e-05,0.0,0 STARLINK-5160,1 54080U 22136AF  23318.88235556  .00001397  00000-0  10588-3 0  9995,2 54080  53.2156 176.2603 0001885  92.1088 268.0120 15.08842490 59224,6917.873,95.437,541.042,538.434,0.0
54080.0,STARLINK-5160,PAYLOAD,2023-11-16 00:12:08,15.08847751,0.0001784,53.2155,171.2049,94.4661,265.6535,0.00015776,2.224e-05,0.0,0 STARLINK-5160,1 54080U 22136AF  23320.00843117  .00002224  00000-0  15776-3 0  9994,2 54080  53.2155 171.2049 0001784  94.4661 265.6535 15.08847751 59871,6917.857,95.437,540.956,538.488,0.0
54080.0,STARLINK-5160,PAYLOAD,2023-11-16 20:52:09,15.08841295,0.0002077,53.213,167.3387,91.9218,268.2012,5.303e-05,5.56e-06,0.0,0 STARLINK-5160,1 54080U 22136AF  23320.86955401  .00000556  00000-0  53030-4 0  9990,2 54080  53.2130 167.3387 0002077  91.9218 268.2012 15.08841295 59529,6917.876,95.437,541.178,538.305,0.0
